ONEWEB-0349             
1 49281U 21090C   25193.15551964 -.00000023  00000+0 -87648-4 0  9995
2 49281  87.9276 342.1829 0001917  92.7770 267.3583 13.20769888186230
ONEWEB-0353             
1 49282U 21090D   25193.49703356 -.00000024  00000+0 -10034-3 0  9992
2 49282  87.9044 357.2924 0002084  97.5277 262.6089 13.14503204184247
ONEWEB-0356             
1 49283U 21090E   25193.15394688  .00000067  00000+0  13298-3 0  9990
2 49283  87.9273 342.1738 0001586 125.6766 234.4515 13.20770517186232
ONEWEB-0358             
1 49284U 21090F   25193.41120757  .00000019  00000+0  15074-4 0  9996
2 49284  87.9271 342.1128 0001699  96.1204 264.0123 13.20770643186995
ONEWEB-0359             
1 49285U 21090G   25193.18078969  .00000007  00000+0 -15425-4 0  9996
2 49285  87.9270 342.1709 0001551  88.8852 271.2459 13.20772560186930
ONEWEB-0360             
1 49286U 21090H   25192.86828040  .00000014  00000+0  19793-5 0  9994
2 49286  87.9277 342.2394 0001794  92.7444 267.3895 13.20770028184923
ONEWEB-0361             
1 49287U 21090J   25192.77358112 -.00000005  00000+0 -44934-4 0  9999
2 49287  87.9275 342.2535 0001797 100.8994 259.2341 13.20770218185369
ONEWEB-0362             
1 49288U 21090K   25193.51799505  .00000046  00000+0  83251-4 0  9996
2 49288  87.9214  12.5120 0001972  85.7314 274.4044 13.19724376182933
